[{"OBJECT_NAME":"TIANQI-26","OBJECT_ID":"2024-102B","EPOCH":"2026-03-09T21:33:43.495776","MEAN_MOTION":13.99145229,"ECCENTRICITY":0.0008546,"INCLINATION":44.9752,"RA_OF_ASC_NODE":343.3823,"ARG_OF_PERICENTER":134.6723,"MEAN_ANOMALY":225.4807,"EPHEMERIS_TYPE":0,"CLASSIFICATION_TYPE":"U","NORAD_CAT_ID":59910,"ELEMENT_SET_NO":999,"REV_AT_EPOCH":9100,"BSTAR":0.00025279708,"MEAN_MOTION_DOT":2.4e-6,"MEAN_MOTION_DDOT":0},{"OBJECT_NAME":"FENGYUN 1C DEB","OBJECT_ID":"1999-025DZA","EPOCH":"2026-03-08T04:56:25.078848","MEAN_MOTION":14.18862622,"ECCENTRICITY":0.01891146,"INCLINATION":98.5564,"RA_OF_ASC_NODE":61.345,"ARG_OF_PERICENTER":2.8411,"MEAN_ANOMALY":54.9364,"EPHEMERIS_TYPE":0,"CLASSIFICATION_TYPE":"U","NORAD_CAT_ID":36680,"ELEMENT_SET_NO":999,"REV_AT_EPOCH":65509,"BSTAR":0.0010351451,"MEAN_MOTION_DOT":2.53e-5,"MEAN_MOTION_DDOT":0}]
